[{"OBJECT_NAME":"GEOSCAN 5 (RS92S5)","OBJECT_ID":"2025-155R","EPOCH":"2026-03-09T22:01:07.273920","MEAN_MOTION":15.30265233,"ECCENTRICITY":0.00070849,"INCLINATION":97.4462,"RA_OF_ASC_NODE":37.7456,"ARG_OF_PERICENTER":154.5846,"MEAN_ANOMALY":205.5745,"EPHEMERIS_TYPE":0,"CLASSIFICATION_TYPE":"U","NORAD_CAT_ID":64891,"ELEMENT_SET_NO":999,"REV_AT_EPOCH":6562,"BSTAR":0.00068639307,"MEAN_MOTION_DOT":0.00020065,"MEAN_MOTION_DDOT":0},{"OBJECT_NAME":"STARLINK-35287","OBJECT_ID":"2025-216W","EPOCH":"2026-03-09T22:00:17.840160","MEAN_MOTION":15.30221552,"ECCENTRICITY":5.566e-5,"INCLINATION":53.1624,"RA_OF_ASC_NODE":331.4571,"ARG_OF_PERICENTER":58.7843,"MEAN_ANOMALY":301.3212,"EPHEMERIS_TYPE":0,"CLASSIFICATION_TYPE":"U","NORAD_CAT_ID":65754,"ELEMENT_SET_NO":999,"REV_AT_EPOCH":2654,"BSTAR":0.00095028028,"MEAN_MOTION_DOT":0.0002791,"MEAN_MOTION_DDOT":0}]
